start=new Date('2023-06-06T00:00:00.000Z').valueOf();
sats=[{"GP_ID":"233287034","RA_OF_ASC_NODE":"16.7646","ELEMENT_SET_NO":"999","ARG_OF_PERICENTER":"269.6005","EPOCH":"2023-06-05T20:37:49.263744","MEAN_MOTION":"15.02538579","DECAY_DATE":null,"TIME_SYSTEM":"UTC","TLE_LINE2":"2 55340  43.0047  16.7646 0001424 269.6005  90.4674 15.02538579 20104","RCS_SIZE":"LARGE","CLASSIFICATION_TYPE":"U","LAUNCH_DATE":"2023-01-26","MEAN_MOTION_DOT":"-0.00000886","INCLINATION":"43.0047","CENTER_NAME":"EARTH","PERIOD":"95.838","COUNTRY_CODE":"US","APOAPSIS":"560.061","TLE_LINE1":"1 55340U 23013K   23156.85959796 -.00000886  00000-0 -50478-4 0  9993","ECCENTRICITY":"0.00014240","REF_FRAME":"TEME","MEAN_ELEMENT_THEORY":"SGP4","FILE":"3925751","OBJECT_TYPE":"PAYLOAD","EPHEMERIS_TYPE":"0","PERIAPSIS":"558.086","REV_AT_EPOCH":"2010","BSTAR":"-0.00005047800000","SEMIMAJOR_AXIS":"6937.209","MEAN_MOTION_DDOT":"0.0000000000000","MEAN_ANOMALY":"90.4674","SITE":"AFETR","OBJECT_NAME":"STARLINK-5675","NORAD_CAT_ID":"55340","OBJECT_ID":"2023-013K"},{"GP_ID":"233287284","RA_OF_ASC_NODE":"17.8922","ELEMENT_SET_NO":"999","ARG_OF_PERICENTER":"269.7562","MEAN_MOTION":"15.02535564","EPOCH":"2023-06-05T15:58:37.688736","TIME_SYSTEM":"UTC","DECAY_DATE":null,"TLE_LINE2":"2 55341  43.0051  17.8922 0001577 269.7562  90.3099 15.02535564 20074","RCS_SIZE":"LARGE","CLASSIFICATION_TYPE":"U","LAUNCH_DATE":"2023-01-26","MEAN_MOTION_DOT":"-0.00000482","INCLINATION":"43.0051","CENTER_NAME":"EARTH","PERIOD":"95.838","COUNTRY_CODE":"US","APOAPSIS":"560.177","ECCENTRICITY":"0.00015770","TLE_LINE1":"1 55341U 23013L   23156.66571399 -.00000482  00000-0 -20620-4 0  9990","REF_FRAME":"TEME","MEAN_ELEMENT_THEORY":"SGP4","FILE":"3925751","OBJECT_TYPE":"PAYLOAD","EPHEMERIS_TYPE":"0","PERIAPSIS":"557.989","REV_AT_EPOCH":"2007","BSTAR":"-0.00002062000000","SEMIMAJOR_AXIS":"6937.218","MEAN_MOTION_DDOT":"0.0000000000000","MEAN_ANOMALY":"90.3099","SITE":"AFETR","OBJECT_NAME":"STARLINK-5670","NORAD_CAT_ID":"55341","OBJECT_ID":"2023-013L"},{"TLE_LINE1":"1 55342U 23013M   23156.85848802 -.00001024  00000-0 -60731-4 0  9998","ECCENTRICITY":"0.00013230","COUNTRY_CODE":"US","PERIOD":"95.838","APOAPSIS":"559.991","OBJECT_NAME":"STARLINK-5657","SITE":"AFETR","MEAN_ANOMALY":"92.6306","MEAN_MOTION_DDOT":"0.0000000000000","SEMIMAJOR_AXIS":"6937.208","OBJECT_ID":"2023-013M","NORAD_CAT_ID":"55342","EPHEMERIS_TYPE":"0","FILE":"3925751","OBJECT_TYPE":"PAYLOAD","MEAN_ELEMENT_THEORY":"SGP4","REF_FRAME":"TEME","BSTAR":"-0.00006073100000","PERIAPSIS":"558.156","REV_AT_EPOCH":"2010","DECAY_DATE":null,"TIME_SYSTEM":"UTC","EPOCH":"2023-06-05T20:36:13.364928","MEAN_MOTION":"15.02538623","ARG_OF_PERICENTER":"267.4385","TLE_LINE2":"2 55342  43.0050  16.7615 0001323 267.4385  92.6306 15.02538623 20107","RA_OF_ASC_NODE":"16.7615","GP_ID":"233288535","ELEMENT_SET_NO":"999","LAUNCH_DATE":"2023-01-26","CLASSIFICATION_TYPE":"U","RCS_SIZE":"LARGE","INCLINATION":"43.0050","CENTER_NAME":"EARTH","MEAN_MOTION_DOT":"-0.00001024"},{"PERIOD":"95.838","COUNTRY_CODE":"US","APOAPSIS":"560.038","ECCENTRICITY":"0.00013820","TLE_LINE1":"1 55343U 23013N   23156.65350635 -.00000785  00000-0 -43038-4 0  9993","FILE":"3925751","OBJECT_TYPE":"PAYLOAD","EPHEMERIS_TYPE":"0","REF_FRAME":"TEME","MEAN_ELEMENT_THEORY":"SGP4","BSTAR":"-0.00004303800000","PERIAPSIS":"558.120","REV_AT_EPOCH":"2007","SITE":"AFETR","OBJECT_NAME":"STARLINK-5661","SEMIMAJOR_AXIS":"6937.214","MEAN_MOTION_DDOT":"0.0000000000000","MEAN_ANOMALY":"96.1165","OBJECT_ID":"2023-013N","NORAD_CAT_ID":"55343","RA_OF_ASC_NODE":"17.8027","GP_ID":"233288286","ELEMENT_SET_NO":"999","TIME_SYSTEM":"UTC","DECAY_DATE":null,"ARG_OF_PERICENTER":"263.9519","EPOCH":"2023-06-05T15:41:02.948640","MEAN_MOTION":"15.02536877","TLE_LINE2":"2 55343  43.0052  17.8027 0001382 263.9519  96.1165 15.02536877 20071","CLASSIFICATION_TYPE":"U","LAUNCH_DATE":"2023-01-26","RCS_SIZE":"LARGE","CENTER_NAME":"EARTH","INCLINATION":"43.0052","MEAN_MOTION_DOT":"-0.00000785"},{"BSTAR":"-0.00005382700000","REV_AT_EPOCH":"2007","PERIAPSIS":"558.006","OBJECT_TYPE":"PAYLOAD","FILE":"3925751","EPHEMERIS_TYPE":"0","REF_FRAME":"TEME","MEAN_ELEMENT_THEORY":"SGP4","OBJECT_ID":"2023-013P","NORAD_CAT_ID":"55344","SITE":"AFETR","OBJECT_NAME":"STARLINK-5662","SEMIMAJOR_AXIS":"6937.210","MEAN_MOTION_DDOT":"0.0000000000000","MEAN_ANOMALY":"90.6194","APOAPSIS":"560.144","PERIOD":"95.838","COUNTRY_CODE":"US","ECCENTRICITY":"0.00015410","TLE_LINE1":"1 55344U 23013P   23156.65572443 -.00000931  00000-0 -53827-4 0  9997","CENTER_NAME":"EARTH","INCLINATION":"43.0043","MEAN_MOTION_DOT":"-0.00000931","CLASSIFICATION_TYPE":"U","LAUNCH_DATE":"2023-01-26","RCS_SIZE":"LARGE","ELEMENT_SET_NO":"999","RA_OF_ASC_NODE":"17.8198","GP_ID":"233287534","TLE_LINE2":"2 55344  43.0043  17.8198 0001541 269.4472  90.6194 15.02538236 20079","TIME_SYSTEM":"UTC","DECAY_DATE":null,"ARG_OF_PERICENTER":"269.4472","EPOCH":"2023-06-05T15:44:14.590752","MEAN_MOTION":"15.02538236"},{"ECCENTRICITY":"0.00012300","TLE_LINE1":"1 55345U 23013Q   23156.65597176  .00030559  00000-0  22773-2 0  9999","COUNTRY_CODE":"US","PERIOD":"95.849","APOAPSIS":"560.443","MEAN_ANOMALY":"140.4778","SEMIMAJOR_AXIS":"6937.725","MEAN_MOTION_DDOT":"0.0000000000000","OBJECT_NAME":"STARLINK-5653","SITE":"AFETR","NORAD_CAT_ID":"55345","OBJECT_ID":"2023-013Q","MEAN_ELEMENT_THEORY":"SGP4","REF_FRAME":"TEME","EPHEMERIS_TYPE":"0","OBJECT_TYPE":"PAYLOAD","FILE":"3925751","PERIAPSIS":"558.736","REV_AT_EPOCH":"2022","BSTAR":"0.00227730000000","MEAN_MOTION":"15.02370896","EPOCH":"2023-06-05T15:44:35.960064","ARG_OF_PERICENTER":"219.5974","TIME_SYSTEM":"UTC","DECAY_DATE":null,"TLE_LINE2":"2 55345  43.0035   4.7928 0001230 219.5974 140.4778 15.02370896 20220","GP_ID":"233287784","RA_OF_ASC_NODE":"4.7928","ELEMENT_SET_NO":"999","RCS_SIZE":"LARGE","LAUNCH_DATE":"2023-01-26","CLASSIFICATION_TYPE":"U","MEAN_MOTION_DOT":"0.00030559","INCLINATION":"43.0035","CENTER_NAME":"EARTH"},{"FILE":"3925751","OBJECT_TYPE":"PAYLOAD","EPHEMERIS_TYPE":"0","REF_FRAME":"TEME","MEAN_ELEMENT_THEORY":"SGP4","BSTAR":"-0.00006259400000","PERIAPSIS":"558.114","REV_AT_EPOCH":"2007","SITE":"AFETR","OBJECT_NAME":"STARLINK-5631","MEAN_MOTION_DDOT":"0.0000000000000","SEMIMAJOR_AXIS":"6937.211","MEAN_ANOMALY":"88.8118","OBJECT_ID":"2023-013R","NORAD_CAT_ID":"55346","PERIOD":"95.838","COUNTRY_CODE":"US","APOAPSIS":"560.038","TLE_LINE1":"1 55346U 23013R   23156.65017687 -.00001049  00000-0 -62594-4 0  9995","ECCENTRICITY":"0.00013870","CLASSIFICATION_TYPE":"U","LAUNCH_DATE":"2023-01-26","RCS_SIZE":"LARGE","CENTER_NAME":"EARTH","INCLINATION":"43.0049","MEAN_MOTION_DOT":"-0.00001049","RA_OF_ASC_NODE":"17.7798","GP_ID":"233288036","ELEMENT_SET_NO":"999","DECAY_DATE":null,"TIME_SYSTEM":"UTC","ARG_OF_PERICENTER":"271.2565","EPOCH":"2023-06-05T15:36:15.281568","MEAN_MOTION":"15.02537880","TLE_LINE2":"2 55346  43.0049  17.7798 0001387 271.2565  88.8118 15.02537880 20073"},{"RCS_SIZE":"LARGE","LAUNCH_DATE":"2023-01-26","CLASSIFICATION_TYPE":"U","MEAN_MOTION_DOT":"-0.00000376","INCLINATION":"43.0037","CENTER_NAME":"EARTH","GP_ID":"233288786","RA_OF_ASC_NODE":"17.6867","ELEMENT_SET_NO":"999","MEAN_MOTION":"15.02537458","EPOCH":"2023-06-05T15:20:16.129248","ARG_OF_PERICENTER":"270.0645","TIME_SYSTEM":"UTC","DECAY_DATE":null,"TLE_LINE2":"2 55347  43.0037  17.6867 0001497 270.0645  90.0026 15.02537458 20079","MEAN_ELEMENT_THEORY":"SGP4","REF_FRAME":"TEME","EPHEMERIS_TYPE":"0","FILE":"3925751","OBJECT_TYPE":"PAYLOAD","REV_AT_EPOCH":"2007","PERIAPSIS":"558.039","BSTAR":"-0.00001275000000","MEAN_ANOMALY":"90.0026","MEAN_MOTION_DDOT":"0.0000000000000","SEMIMAJOR_AXIS":"6937.212","OBJECT_NAME":"STARLINK-5663","SITE":"AFETR","NORAD_CAT_ID":"55347","OBJECT_ID":"2023-013S","COUNTRY_CODE":"US","PERIOD":"95.838","APOAPSIS":"560.116","ECCENTRICITY":"0.00014970","TLE_LINE1":"1 55347U 23013S   23156.63907557 -.00000376  00000-0 -12750-4 0  9999"},{"SITE":"AFETR","OBJECT_NAME":"STARLINK-5609","MEAN_MOTION_DDOT":"0.0000000000000","SEMIMAJOR_AXIS":"6937.223","MEAN_ANOMALY":"85.7992","OBJECT_ID":"2023-013T","NORAD_CAT_ID":"55348","FILE":"3925751","OBJECT_TYPE":"PAYLOAD","EPHEMERIS_TYPE":"0","REF_FRAME":"TEME","MEAN_ELEMENT_THEORY":"SGP4","BSTAR":"-0.00002742700000","REV_AT_EPOCH":"2007","PERIAPSIS":"558.283","TLE_LINE1":"1 55348U 23013T   23156.64795739 -.00000574  00000-0 -27427-4 0  9995","ECCENTRICITY":"0.00011610","PERIOD":"95.838","COUNTRY_CODE":"US","APOAPSIS":"559.894","CLASSIFICATION_TYPE":"U","LAUNCH_DATE":"2023-01-26","RCS_SIZE":"LARGE","CENTER_NAME":"EARTH","INCLINATION":"43.0054","MEAN_MOTION_DOT":"-0.00000574","DECAY_DATE":null,"TIME_SYSTEM":"UTC","ARG_OF_PERICENTER":"274.2718","MEAN_MOTION":"15.02533829","EPOCH":"2023-06-05T15:33:03.518496","TLE_LINE2":"2 55348  43.0054  17.7611 0001161 274.2718  85.7992 15.02533829 20073","RA_OF_ASC_NODE":"17.7611","GP_ID":"233287035","ELEMENT_SET_NO":"999"},{"CENTER_NAME":"EARTH","INCLINATION":"43.0037","MEAN_MOTION_DOT":"0.00003585","LAUNCH_DATE":"2023-01-26","CLASSIFICATION_TYPE":"U","RCS_SIZE":"LARGE","ELEMENT_SET_NO":"999","RA_OF_ASC_NODE":"17.3694","GP_ID":"233287285","TLE_LINE2":"2 55349  43.0037  17.3694 0001761 266.0906  93.9735 15.02537919 20087","DECAY_DATE":null,"TIME_SYSTEM":"UTC","MEAN_MOTION":"15.02537919","EPOCH":"2023-06-05T17:03:59.357952","ARG_OF_PERICENTER":"266.0906","BSTAR":"0.00028034000000","PERIAPSIS":"557.854","REV_AT_EPOCH":"2008","EPHEMERIS_TYPE":"0","OBJECT_TYPE":"PAYLOAD","FILE":"3925751","MEAN_ELEMENT_THEORY":"SGP4","REF_FRAME":"TEME","OBJECT_ID":"2023-013U","NORAD_CAT_ID":"55349","OBJECT_NAME":"STARLINK-5666","SITE":"AFETR","MEAN_ANOMALY":"93.9735","SEMIMAJOR_AXIS":"6937.211","MEAN_MOTION_DDOT":"0.0000000000000","APOAPSIS":"560.297","COUNTRY_CODE":"US","PERIOD":"95.838","TLE_LINE1":"1 55349U 23013U   23156.71110368  .00003585  00000-0  28034-3 0  9990","ECCENTRICITY":"0.00017610"}];
